*******************************************************************************
 Revised: July 31, 2013                  Sun                                 10

 PHYSICAL PROPERTIES
  GM, km^3/s^2          = 132712440041.93938  Mass, 10^24 kg        = ~1988410
  Vol. mean radius, km  = 695700              Volume, 10^12 km^3    = 1412000
  Solar radius (IAU2015)= 695700 km           Mean density, g/cm^3  = 1.408
  Radius (photosphere)  = 696500 km           Angular diam at 1 AU  = 1919.3"
  Photosphere temp., K  = 6600 (bottom)       Photosphere temp., K  = 4400(top)
  Photospheric depth    = ~500 km             Chromospheric depth   = ~2500 km
  Flatness, f           = 0.00005             Adopted sid. rot. per.= 25.38 d
  Surface gravity       =  274.0 m/s^2        Escape speed, km/s    =  617.7
  Pole (RA,DEC), deg.   = (286.13, 63.87)     Obliquity to ecliptic = 7.25 deg.
  Solar constant (1 AU) = 1367.6 W/m^2        Luminosity, 10^24 J/s = 382.8
  Mass-energy conv rate = 4.260 x 10^9 kg/s   Effective temp, K     = 5772
  Sunspot cycle         = 11.4 yr             Cycle 24 sunspot min. = 2008 A.D.

  Motion relative to nearby stars = apex : R.A.= 271 deg.; DEC.= +30 deg.
                                    speed: 19.4 km/s (0.0112 au/day)
  Motion relative to 2.73K BB/CBR = apex : l= 264.7 +- 0.8; b= 48.2 +- 0.5 deg.
                                    speed: 369 +-11 km/s
*******************************************************************************


*******************************************************************************
Ephemeris / WWW_USER Mon Nov 11 17:52:29 2024 Pasadena, USA      / Horizons
*******************************************************************************
Target body name: Sun (10)                        {source: DE441}
Center body name: Solar System Barycenter (0)     {source: DE441}
Center-site name: BODY CENTER
*******************************************************************************
Start time      : A.D. 2024-Nov-11 00:00:00.0000 TDB
Stop  time      : A.D. 2024-Dec-11 00:00:00.0000 TDB
Step-size       : 1440 minutes
*******************************************************************************
Center geodetic : 0.0, 0.0, 0.0                   {E-lon(deg),Lat(deg),Alt(km)}
Center cylindric: 0.0, 0.0, 0.0                   {E-lon(deg),Dxy(km),Dz(km)}
Center radii    : (undefined)
Output units    : KM-S
Calendar mode   : Mixed Julian/Gregorian
Output type     : GEOMETRIC cartesian states
Output format   : 3 (position, velocity, LT, range, range-rate)
Reference frame : Ecliptic of J2000.0
*******************************************************************************
JDTDB
   X     Y     Z
   VX    VY    VZ
   LT    RG    RR
*******************************************************************************
$$SOE
2460649.500000000 = A.D. 2024-Dec-05 00:00:00.0000 TDB 
 X =-8.859853479417271E+05 Y =-7.191225742363872E+05 Z = 2.732159366589025E+04
 VX= 1.219209704501894E-02 VY=-6.926547248379863E-03 VZ=-1.966945634549865E-04
 LT= 3.807387995347447E+00 RG= 1.141426205684903E+06 RR=-5.104453388809722E-03
2460650.500000000 = A.D. 2024-Dec-06 00:00:00.0000 TDB 
 X =-8.849315436237671E+05 Y =-7.197201234465345E+05 Z = 2.730458506903195E+04
 VX= 1.220149529604092E-02 VY=-6.905591078800686E-03 VZ=-1.970207217490130E-04
 LT= 3.805915799188470E+00 RG= 1.140984852379746E+06 RR=-5.112052767422704E-03
2460651.500000000 = A.D. 2024-Dec-07 00:00:00.0000 TDB 
 X =-8.838769341761257E+05 Y =-7.203158572450887E+05 Z = 2.728754886383441E+04
 VX= 1.221073316566644E-02 VY=-6.884526274638330E-03 VZ=-1.973337430237749E-04
 LT= 3.804441418360966E+00 RG= 1.140542844127440E+06 RR=-5.119611887874287E-03
2460652.500000000 = A.D. 2024-Dec-08 00:00:00.0000 TDB 
 X =-8.828215337118264E+05 Y =-7.209097668918244E+05 Z = 2.727048615543469E+04
 VX= 1.221980519016707E-02 VY=-6.863367908055485E-03 VZ=-1.976343712581830E-04
 LT= 3.802964866394234E+00 RG= 1.140100184983969E+06 RR=-5.127117654508013E-03
2460653.500000000 = A.D. 2024-Dec-09 00:00:00.0000 TDB 
 X =-8.817653566940211E+05 Y =-7.215018449704055E+05 Z = 2.725339797193863E+04
 VX= 1.222870874094343E-02 VY=-6.842131433085761E-03 VZ=-1.979236369906196E-04
 LT= 3.801486160327370E+00 RG= 1.139656880057524E+06 RR=-5.134558889089052E-03
2460654.500000000 = A.D. 2024-Dec-10 00:00:00.0000 TDB 
 X =-8.807084176909546E+05 Y =-7.220920853903901E+05 Z = 2.723628524218863E+04
 VX= 1.223744399007823E-02 VY=-6.820831970681803E-03 VZ=-1.982027956957018E-04
 LT= 3.800005320092956E+00 RG= 1.139212935323744E+06 RR=-5.141926743915621E-03
2460655.500000000 = A.D. 2024-Dec-11 00:00:00.0000 TDB 
 X =-8.796507311430316E+05 Y =-7.226804833293873E+05 Z = 2.721914877953543E+04
 VX= 1.224601366934346E-02 VY=-6.799483653948696E-03 VZ=-1.984732521369695E-04
 LT= 3.798522367808773E+00 RG= 1.138768357413372E+06 RR=-5.149214920844306E-03
